0 SL-16 DEB
1 22495U 92093GE  13281.76988866  .00005057  00000-0  20021-2 0  3491
2 22495 071.1885 175.4385 0019293 353.4353 062.7446 14.29241212 65768
0 SL-16 DEB
1 22495U 92093GE  13283.11203211  .00006499  00000-0  25661-2 0  3504
2 22495 071.1886 172.5809 0019302 351.6806 128.1072 14.29262863 65950
0 SL-16 DEB
1 22495U 92093GE  13286.12786481  .00005500  00000-0  21733-2 0  3523
2 22495 071.1889 166.1597 0019379 347.3082 165.3551 14.29291891 66384
0 SL-16 DEB
1 22495U 92093GE  13287.71881926  .00006030  00000-0  23800-2 0  3536
2 22495 071.1896 162.7728 0019381 345.9671 070.3920 14.29306954 66619
0 SL-16 DEB
1 22495U 92093GE  13288.69856047  .00007774  00000-0  30612-2 0  3546
2 22495 071.1894 160.6867 0019395 344.6930 071.4050 14.29325843 66756
0 SL-16 DEB
1 22495U 92093GE  13290.73179737  .00006871  00000-0  27071-2 0  3551
2 22495 071.1893 156.3572 0019308 342.9670 092.1554 14.29349800 67047
0 SL-16 DEB
1 22495U 92093GE  13292.07047135  .00005964  00000-0  23519-2 0  3562
2 22495 071.1890 153.5068 0019479 339.9468 141.4466 14.29362910 67231
0 SL-16 DEB
1 22495U 92093GE  13293.66744573  .00006971  00000-0  27442-2 0  3577
2 22495 071.1886 150.1057 0019450 338.1968 078.2798 14.29380636 67467
0 SL-16 DEB
1 22495U 92093GE  13294.71986042  .00007791  00000-0  30638-2 0  3586
2 22495 071.1890 147.8640 0019456 336.7321 093.5861 14.29393201 67616
